QIANFAN-41              
1 62242U 24232F   25303.80459572  .00000201  00000+0  29302-3 0  9993
2 62242  89.0038  45.5195 0012393 319.6034  40.4196 13.50983133 93450
QIANFAN-42              
1 62243U 24232G   25303.78150132  .00000812  00000+0  34452-3 0  9991
2 62243  89.0033  42.2536 0013916 217.6854 142.3365 14.24417749 95255
QIANFAN-43              
1 62244U 24232H   25303.80049897  .00000191  00000+0  27702-3 0  9990
2 62244  89.0043  45.5834 0014001 324.9759  35.0470 13.50983999 62067
QIANFAN-44              
1 62245U 24232J   25303.78811976  .00000197  00000+0  28747-3 0  9999
2 62245  89.0041  45.3961 0012173 322.3229  37.7069 13.50971163 93536
QIANFAN-45              
1 62246U 24232K   25303.75526419  .00000196  00000+0  28498-3 0  9994
2 62246  89.0044  45.5444 0012802 321.8237  38.2006 13.50981736 93455
QIANFAN-46              
1 62247U 24232L   25303.77991699  .00000179  00000+0  25912-3 0  9992
2 62247  89.0041  45.6126 0012994 327.9029  32.1330 13.50982321 93419
QIANFAN-47              
1 62248U 24232M   25303.78402654  .00000195  00000+0  28320-3 0  9996
2 62248  89.0037  45.5469 0013403 326.7605  33.2703 13.50984184 93445
QIANFAN-48              
1 62249U 24232N   25303.74709942  .00000187  00000+0  27059-3 0  9992
2 62249  89.0040  45.5508 0015703 329.0237  30.9987 13.50980223 93444
