<?xml version="1.0" encoding="UTF-8"?>
<ndm xmlns:xsi="http://www.w3.org/2001/XMLSchema-instance" xsi:noNamespaceSchemaLocation="https://sanaregistry.org/r/ndmxml_unqualified/ndmxml-2.0.0-master-2.0.xsd">
<omm id="CCSDS_OMM_VERS" version="2.0">
<header><CREATION_DATE/><ORIGINATOR/></header><body><segment><metadata><OBJECT_NAME>QIANFAN-41</OBJECT_NAME><OBJECT_ID>2024-232F</OBJECT_ID><CENTER_NAME>EARTH</CENTER_NAME><REF_FRAME>TEME</REF_FRAME><TIME_SYSTEM>UTC</TIME_SYSTEM><MEAN_ELEMENT_THEORY>SGP4</MEAN_ELEMENT_THEORY></metadata><data><meanElements><EPOCH>2025-10-30T19:18:37.070208</EPOCH><MEAN_MOTION>13.50983133</MEAN_MOTION><ECCENTRICITY>.0012393</ECCENTRICITY><INCLINATION>89.0038</INCLINATION><RA_OF_ASC_NODE>45.5195</RA_OF_ASC_NODE><ARG_OF_PERICENTER>319.6034</ARG_OF_PERICENTER><MEAN_ANOMALY>40.4196</MEAN_ANOMALY></meanElements><tleParameters><EPHEMERIS_TYPE>0</EPHEMERIS_TYPE><CLASSIFICATION_TYPE>U</CLASSIFICATION_TYPE><NORAD_CAT_ID>62242</NORAD_CAT_ID><ELEMENT_SET_NO>999</ELEMENT_SET_NO><REV_AT_EPOCH>9345</REV_AT_EPOCH><BSTAR>.29302E-3</BSTAR><MEAN_MOTION_DOT>.201E-5</MEAN_MOTION_DOT><MEAN_MOTION_DDOT>0</MEAN_MOTION_DDOT></tleParameters></data></segment></body></omm>
<omm id="CCSDS_OMM_VERS" version="2.0">
<header><CREATION_DATE/><ORIGINATOR/></header><body><segment><metadata><OBJECT_NAME>QIANFAN-42</OBJECT_NAME><OBJECT_ID>2024-232G</OBJECT_ID><CENTER_NAME>EARTH</CENTER_NAME><REF_FRAME>TEME</REF_FRAME><TIME_SYSTEM>UTC</TIME_SYSTEM><MEAN_ELEMENT_THEORY>SGP4</MEAN_ELEMENT_THEORY></metadata><data><meanElements><EPOCH>2025-10-30T18:45:21.714048</EPOCH><MEAN_MOTION>14.24417749</MEAN_MOTION><ECCENTRICITY>.0013916</ECCENTRICITY><INCLINATION>89.0033</INCLINATION><RA_OF_ASC_NODE>42.2536</RA_OF_ASC_NODE><ARG_OF_PERICENTER>217.6854</ARG_OF_PERICENTER><MEAN_ANOMALY>142.3365</MEAN_ANOMALY></meanElements><tleParameters><EPHEMERIS_TYPE>0</EPHEMERIS_TYPE><CLASSIFICATION_TYPE>U</CLASSIFICATION_TYPE><NORAD_CAT_ID>62243</NORAD_CAT_ID><ELEMENT_SET_NO>999</ELEMENT_SET_NO><REV_AT_EPOCH>9525</REV_AT_EPOCH><BSTAR>.34452E-3</BSTAR><MEAN_MOTION_DOT>.812E-5</MEAN_MOTION_DOT><MEAN_MOTION_DDOT>0</MEAN_MOTION_DDOT></tleParameters></data></segment></body></omm>
<omm id="CCSDS_OMM_VERS" version="2.0">
<header><CREATION_DATE/><ORIGINATOR/></header><body><segment><metadata><OBJECT_NAME>QIANFAN-43</OBJECT_NAME><OBJECT_ID>2024-232H</OBJECT_ID><CENTER_NAME>EARTH</CENTER_NAME><REF_FRAME>TEME</REF_FRAME><TIME_SYSTEM>UTC</TIME_SYSTEM><MEAN_ELEMENT_THEORY>SGP4</MEAN_ELEMENT_THEORY></metadata><data><meanElements><EPOCH>2025-10-30T19:12:43.111008</EPOCH><MEAN_MOTION>13.50983999</MEAN_MOTION><ECCENTRICITY>.0014001</ECCENTRICITY><INCLINATION>89.0043</INCLINATION><RA_OF_ASC_NODE>45.5834</RA_OF_ASC_NODE><ARG_OF_PERICENTER>324.9759</ARG_OF_PERICENTER><MEAN_ANOMALY>35.0470</MEAN_ANOMALY></meanElements><tleParameters><EPHEMERIS_TYPE>0</EPHEMERIS_TYPE><CLASSIFICATION_TYPE>U</CLASSIFICATION_TYPE><NORAD_CAT_ID>62244</NORAD_CAT_ID><ELEMENT_SET_NO>999</ELEMENT_SET_NO><REV_AT_EPOCH>6206</REV_AT_EPOCH><BSTAR>.27702E-3</BSTAR><MEAN_MOTION_DOT>.191E-5</MEAN_MOTION_DOT><MEAN_MOTION_DDOT>0</MEAN_MOTION_DDOT></tleParameters></data></segment></body></omm>
<omm id="CCSDS_OMM_VERS" version="2.0">
<header><CREATION_DATE/><ORIGINATOR/></header><body><segment><metadata><OBJECT_NAME>QIANFAN-44</OBJECT_NAME><OBJECT_ID>2024-232J</OBJECT_ID><CENTER_NAME>EARTH</CENTER_NAME><REF_FRAME>TEME</REF_FRAME><TIME_SYSTEM>UTC</TIME_SYSTEM><MEAN_ELEMENT_THEORY>SGP4</MEAN_ELEMENT_THEORY></metadata><data><meanElements><EPOCH>2025-10-30T18:54:53.547264</EPOCH><MEAN_MOTION>13.50971163</MEAN_MOTION><ECCENTRICITY>.0012173</ECCENTRICITY><INCLINATION>89.0041</INCLINATION><RA_OF_ASC_NODE>45.3961</RA_OF_ASC_NODE><ARG_OF_PERICENTER>322.3229</ARG_OF_PERICENTER><MEAN_ANOMALY>37.7069</MEAN_ANOMALY></meanElements><tleParameters><EPHEMERIS_TYPE>0</EPHEMERIS_TYPE><CLASSIFICATION_TYPE>U</CLASSIFICATION_TYPE><NORAD_CAT_ID>62245</NORAD_CAT_ID><ELEMENT_SET_NO>999</ELEMENT_SET_NO><REV_AT_EPOCH>9353</REV_AT_EPOCH><BSTAR>.28747E-3</BSTAR><MEAN_MOTION_DOT>.197E-5</MEAN_MOTION_DOT><MEAN_MOTION_DDOT>0</MEAN_MOTION_DDOT></tleParameters></data></segment></body></omm>
<omm id="CCSDS_OMM_VERS" version="2.0">
<header><CREATION_DATE/><ORIGINATOR/></header><body><segment><metadata><OBJECT_NAME>QIANFAN-45</OBJECT_NAME><OBJECT_ID>2024-232K</OBJECT_ID><CENTER_NAME>EARTH</CENTER_NAME><REF_FRAME>TEME</REF_FRAME><TIME_SYSTEM>UTC</TIME_SYSTEM><MEAN_ELEMENT_THEORY>SGP4</MEAN_ELEMENT_THEORY></metadata><data><meanElements><EPOCH>2025-10-30T18:07:34.826016</EPOCH><MEAN_MOTION>13.50981736</MEAN_MOTION><ECCENTRICITY>.0012802</ECCENTRICITY><INCLINATION>89.0044</INCLINATION><RA_OF_ASC_NODE>45.5444</RA_OF_ASC_NODE><ARG_OF_PERICENTER>321.8237</ARG_OF_PERICENTER><MEAN_ANOMALY>38.2006</MEAN_ANOMALY></meanElements><tleParameters><EPHEMERIS_TYPE>0</EPHEMERIS_TYPE><CLASSIFICATION_TYPE>U</CLASSIFICATION_TYPE><NORAD_CAT_ID>62246</NORAD_CAT_ID><ELEMENT_SET_NO>999</ELEMENT_SET_NO><REV_AT_EPOCH>9345</REV_AT_EPOCH><BSTAR>.28498E-3</BSTAR><MEAN_MOTION_DOT>.196E-5</MEAN_MOTION_DOT><MEAN_MOTION_DDOT>0</MEAN_MOTION_DDOT></tleParameters></data></segment></body></omm>
<omm id="CCSDS_OMM_VERS" version="2.0">
<header><CREATION_DATE/><ORIGINATOR/></header><body><segment><metadata><OBJECT_NAME>QIANFAN-46</OBJECT_NAME><OBJECT_ID>2024-232L</OBJECT_ID><CENTER_NAME>EARTH</CENTER_NAME><REF_FRAME>TEME</REF_FRAME><TIME_SYSTEM>UTC</TIME_SYSTEM><MEAN_ELEMENT_THEORY>SGP4</MEAN_ELEMENT_THEORY></metadata><data><meanElements><EPOCH>2025-10-30T18:43:04.827936</EPOCH><MEAN_MOTION>13.50982321</MEAN_MOTION><ECCENTRICITY>.0012994</ECCENTRICITY><INCLINATION>89.0041</INCLINATION><RA_OF_ASC_NODE>45.6126</RA_OF_ASC_NODE><ARG_OF_PERICENTER>327.9029</ARG_OF_PERICENTER><MEAN_ANOMALY>32.1330</MEAN_ANOMALY></meanElements><tleParameters><EPHEMERIS_TYPE>0</EPHEMERIS_TYPE><CLASSIFICATION_TYPE>U</CLASSIFICATION_TYPE><NORAD_CAT_ID>62247</NORAD_CAT_ID><ELEMENT_SET_NO>999</ELEMENT_SET_NO><REV_AT_EPOCH>9341</REV_AT_EPOCH><BSTAR>.25912E-3</BSTAR><MEAN_MOTION_DOT>.179E-5</MEAN_MOTION_DOT><MEAN_MOTION_DDOT>0</MEAN_MOTION_DDOT></tleParameters></data></segment></body></omm>
<omm id="CCSDS_OMM_VERS" version="2.0">
<header><CREATION_DATE/><ORIGINATOR/></header><body><segment><metadata><OBJECT_NAME>QIANFAN-47</OBJECT_NAME><OBJECT_ID>2024-232M</OBJECT_ID><CENTER_NAME>EARTH</CENTER_NAME><REF_FRAME>TEME</REF_FRAME><TIME_SYSTEM>UTC</TIME_SYSTEM><MEAN_ELEMENT_THEORY>SGP4</MEAN_ELEMENT_THEORY></metadata><data><meanElements><EPOCH>2025-10-30T18:48:59.893056</EPOCH><MEAN_MOTION>13.50984184</MEAN_MOTION><ECCENTRICITY>.0013403</ECCENTRICITY><INCLINATION>89.0037</INCLINATION><RA_OF_ASC_NODE>45.5469</RA_OF_ASC_NODE><ARG_OF_PERICENTER>326.7605</ARG_OF_PERICENTER><MEAN_ANOMALY>33.2703</MEAN_ANOMALY></meanElements><tleParameters><EPHEMERIS_TYPE>0</EPHEMERIS_TYPE><CLASSIFICATION_TYPE>U</CLASSIFICATION_TYPE><NORAD_CAT_ID>62248</NORAD_CAT_ID><ELEMENT_SET_NO>999</ELEMENT_SET_NO><REV_AT_EPOCH>9344</REV_AT_EPOCH><BSTAR>.2832E-3</BSTAR><MEAN_MOTION_DOT>.195E-5</MEAN_MOTION_DOT><MEAN_MOTION_DDOT>0</MEAN_MOTION_DDOT></tleParameters></data></segment></body></omm>
<omm id="CCSDS_OMM_VERS" version="2.0">
<header><CREATION_DATE/><ORIGINATOR/></header><body><segment><metadata><OBJECT_NAME>QIANFAN-48</OBJECT_NAME><OBJECT_ID>2024-232N</OBJECT_ID><CENTER_NAME>EARTH</CENTER_NAME><REF_FRAME>TEME</REF_FRAME><TIME_SYSTEM>UTC</TIME_SYSTEM><MEAN_ELEMENT_THEORY>SGP4</MEAN_ELEMENT_THEORY></metadata><data><meanElements><EPOCH>2025-10-30T17:55:49.389888</EPOCH><MEAN_MOTION>13.50980223</MEAN_MOTION><ECCENTRICITY>.0015703</ECCENTRICITY><INCLINATION>89.0040</INCLINATION><RA_OF_ASC_NODE>45.5508</RA_OF_ASC_NODE><ARG_OF_PERICENTER>329.0237</ARG_OF_PERICENTER><MEAN_ANOMALY>30.9987</MEAN_ANOMALY></meanElements><tleParameters><EPHEMERIS_TYPE>0</EPHEMERIS_TYPE><CLASSIFICATION_TYPE>U</CLASSIFICATION_TYPE><NORAD_CAT_ID>62249</NORAD_CAT_ID><ELEMENT_SET_NO>999</ELEMENT_SET_NO><REV_AT_EPOCH>9344</REV_AT_EPOCH><BSTAR>.27059E-3</BSTAR><MEAN_MOTION_DOT>.187E-5</MEAN_MOTION_DOT><MEAN_MOTION_DDOT>0</MEAN_MOTION_DDOT></tleParameters></data></segment></body></omm>

</ndm>
